[{"OBJECT_NAME":"STARLINK-32384","OBJECT_ID":"2024-224H","EPOCH":"2026-03-09T06:20:35.094048","MEAN_MOTION":15.27577303,"ECCENTRICITY":0.00010569,"INCLINATION":42.9979,"RA_OF_ASC_NODE":160.6213,"ARG_OF_PERICENTER":249.8965,"MEAN_ANOMALY":110.1773,"EPHEMERIS_TYPE":0,"CLASSIFICATION_TYPE":"U","NORAD_CAT_ID":62146,"ELEMENT_SET_NO":999,"REV_AT_EPOCH":7241,"BSTAR":0.0011798157,"MEAN_MOTION_DOT":0.00032344,"MEAN_MOTION_DDOT":0},{"OBJECT_NAME":"FLOCK 4G-5","OBJECT_ID":"2025-009BG","EPOCH":"2026-03-09T10:57:11.608704","MEAN_MOTION":15.28679529,"ECCENTRICITY":0.00020946,"INCLINATION":97.4058,"RA_OF_ASC_NODE":151.2478,"ARG_OF_PERICENTER":314.5072,"MEAN_ANOMALY":45.5996,"EPHEMERIS_TYPE":0,"CLASSIFICATION_TYPE":"U","NORAD_CAT_ID":62663,"ELEMENT_SET_NO":999,"REV_AT_EPOCH":6369,"BSTAR":0.00040688068,"MEAN_MOTION_DOT":0.00011278,"MEAN_MOTION_DDOT":0}]
